NORAD_CAT_ID,OBJECT_NAME,OBJECT_TYPE,EPOCH,MEAN_MOTION,ECCENTRICITY,INCLINATION,RA_OF_ASC_NODE,ARG_OF_PERICENTER,MEAN_ANOMALY,BSTAR,MEAN_MOTION_DOT,MEAN_MOTION_DDOT,TLE_LINE0,TLE_LINE1,TLE_LINE2,SEMIMAJOR_AXIS,PERIOD,APOGEE,PERIGEE,DECAYED
52639.0,STARLINK-3968,PAYLOAD,2022-10-21 08:29:37,15.08826195,0.0002618,53.2189,44.7533,30.6236,329.4908,-1.1084e-05,-4.65e-06,0.0,0 STARLINK-3968,1 52639U 22052AT  22294.35390353 -.00000465  00000-0 -11084-4 0  9991,2 52639  53.2189  44.7533 0002618  30.6236 329.4908 15.08826195 25016,6917.9230000000025,95.438,541.599,537.976,0.0
52639.0,STARLINK-3968,PAYLOAD,2022-10-21 10:05:00,15.08827162,0.0002631,53.2187,44.4557,31.2979,328.8169,-5.8336e-06,-3.81e-06,0.0,0 STARLINK-3968,1 52639U 22052AT  22294.42014292 -.00000381  00000-0 -58336-5 0  9993,2 52639  53.2187  44.4557 0002631  31.2979 328.8169 15.08827162 25458,6917.92,95.438,541.605,537.965,0.0
52639.0,STARLINK-3968,PAYLOAD,2022-10-21 16:26:32,15.08835275,0.0002605,53.2186,43.2661,32.4676,327.6476,1.7343e-05,-1.2e-07,0.0,0 STARLINK-3968,1 52639U 22052AT  22294.68509783 -.00000012  00000-0  17343-4 0  9997,2 52639  53.2186  43.2661 0002605  32.4676 327.6476 15.08835275 25067,6917.895,95.438,541.562,537.9580000000002,0.0
52639.0,STARLINK-3968,PAYLOAD,2022-10-22 01:58:50,15.08854713,0.000271,53.219,41.4821,27.2941,332.8193,-7.454e-05,-1.475e-05,0.0,0 STARLINK-3968,1 52639U 22052AT  22295.08252926 -.00001475  00000-0 -74540-4 0  9993,2 52639  53.2190  41.4821 0002710  27.2941 332.8193 15.08854713 25123,6917.835,95.437,541.575,537.826,0.0
52639.0,STARLINK-3968,PAYLOAD,2022-10-22 13:06:32,15.08846894,0.0002748999999999,53.2192,39.4001,24.1888,335.9232,-0.00010752,-2e-05,0.0,0 STARLINK-3968,1 52639U 22052AT  22295.54621277 -.00002000  00000-0 -10752-3 0  9992,2 52639  53.2192  39.4001 0002749  24.1888 335.9232 15.08846894 25624,6917.859,95.437,541.626,537.823,0.0
52639.0,STARLINK-3968,PAYLOAD,2022-10-22 14:41:55,15.08842795,0.000277,53.2186,39.1025,26.1328,333.9803,-0.00013683,-2.466e-05,0.0,0 STARLINK-3968,1 52639U 22052AT  22295.61244832 -.00002466  00000-0 -13683-3 0  9990,2 52639  53.2186  39.1025 0002770  26.1328 333.9803 15.08842795 25634,6917.871999999999,95.437,541.653,537.821,0.0
52639.0,STARLINK-3968,PAYLOAD,2022-10-23 01:49:36,15.08854245,0.0002742,53.2185,37.0209,29.5778,330.5369,2.5001e-06,-2.49e-06,0.0,0 STARLINK-3968,1 52639U 22052AT  22296.07612088 -.00000249  00000-0  25001-5 0  9998,2 52639  53.2185  37.0209 0002742  29.5778 330.5369 15.08854245 25272,6917.837,95.437,541.599,537.805,0.0
52639.0,STARLINK-3968,PAYLOAD,2022-10-23 06:35:47,15.08841736,0.000274,53.2183,36.129,31.7547,328.361,0.00032079,4.821e-05,0.0,0 STARLINK-3968,1 52639U 22052AT  22296.27485038  .00004821  00000-0  32079-3 0  9993,2 52639  53.2183  36.1290 0002740  31.7547 328.3610 15.08841736 25306,6917.875,95.437,541.636,537.845,0.0
52639.0,STARLINK-3968,PAYLOAD,2022-10-23 12:57:19,15.08846291,0.000273,53.218,34.9395,31.4814,328.6341,0.00032686,4.918e-05,0.0,0 STARLINK-3968,1 52639U 22052AT  22296.53980847  .00004918  00000-0  32686-3 0  9991,2 52639  53.2180  34.9395 0002730  31.4814 328.6341 15.08846291 25774,6917.861,95.437,541.615,537.8380000000002,0.0
52639.0,STARLINK-3968,PAYLOAD,2022-10-23 16:08:05,15.08851446,0.0002722,53.218,34.3446,31.9551,328.1606,0.00037854,5.743e-05,0.0,0 STARLINK-3968,1 52639U 22052AT  22296.67228593  .00005743  00000-0  37854-3 0  9998,2 52639  53.2180  34.3446 0002722  31.9551 328.1606 15.08851446 25798,6917.845,95.437,541.5930000000002,537.827,0.0
52639.0,STARLINK-3968,PAYLOAD,2022-10-24 03:15:46,15.08862698,0.0002615,53.2181,32.2629,32.4646,327.6507,0.00044872,6.865e-05,0.0,0 STARLINK-3968,1 52639U 22052AT  22297.13595760  .00006865  00000-0  44872-3 0  9997,2 52639  53.2181  32.2629 0002615  32.4646 327.6507 15.08862698 25437,6917.811,95.436,541.485,537.867,0.0
52639.0,STARLINK-3968,PAYLOAD,2022-10-24 09:37:20,15.08823768,0.0002376,53.2182,31.0736,29.1281,330.9843,-0.00045035,-7.446e-05,0.0,0 STARLINK-3968,1 52639U 22052AT  22297.40092976 -.00007446  00000-0 -45035-3 0  9998,2 52639  53.2182  31.0736 0002376  29.1281 330.9843 15.08823768 25475,6917.93,95.439,541.439,538.151,0.0
52639.0,STARLINK-3968,PAYLOAD,2022-10-24 12:48:06,15.0881705,0.0002625,53.218,30.4791,25.646,334.4662,-0.00074981,-0.00012195,0.0,0 STARLINK-3968,1 52639U 22052AT  22297.53341089 -.00012195  00000-0 -74981-3 0  9993,2 52639  53.2180  30.4791 0002625  25.6460 334.4662 15.08817050 25929,6917.951,95.439,541.632,538.0,0.0
52639.0,STARLINK-3968,PAYLOAD,2022-10-25 09:28:09,15.08811095,0.0002783,53.2185,26.6147,23.4113,336.7005,0.00050114,7.69e-05,0.0,0 STARLINK-3968,1 52639U 22052AT  22298.39454952  .00007690  00000-0  50114-3 0  9996,2 52639  53.2185  26.6147 0002783  23.4113 336.7005 15.08811095 26056,6917.969,95.439,541.759,537.908,0.0
52639.0,STARLINK-3968,PAYLOAD,2022-10-25 12:38:55,15.08814103,0.0002753999999999,53.2186,26.0199,22.9857,337.1258,0.00070764,0.00010984,0.0,0 STARLINK-3968,1 52639U 22052AT  22298.52703209  .00010984  00000-0  70764-3 0  9996,2 52639  53.2186  26.0199 0002754  22.9857 337.1258 15.08814103 25647,6917.96,95.439,541.73,537.919,0.0
52639.0,STARLINK-3968,PAYLOAD,2022-10-26 12:29:43,15.08843915,0.000286,53.219,21.56,24.0381,336.0744,0.00084538,0.00013194,0.0,0 STARLINK-3968,1 52639U 22052AT  22299.52063806  .00013194  00000-0  84538-3 0  9999,2 52639  53.2190  21.5600 0002860  24.0381 336.0744 15.08843915 25799,6917.868,95.437,541.712,537.755,0.0
52639.0,STARLINK-3968,PAYLOAD,2022-10-27 12:20:29,15.0885294,0.0002863999999999,53.2188,17.1,24.3986,335.7141,0.00018605,2.675e-05,0.0,0 STARLINK-3968,1 52639U 22052AT  22300.51422946  .00002675  00000-0  18605-3 0  9999,2 52639  53.2188  17.1000 0002864  24.3986 335.7141 15.08852940 25941,6917.840999999999,95.437,541.687,537.725,0.0
52639.0,STARLINK-3968,PAYLOAD,2022-10-28 12:11:15,15.08859363,0.0002758,53.2192,12.6417,27.6217,332.4921,0.0001475,2.061e-05,0.0,0 STARLINK-3968,1 52639U 22052AT  22301.50781760  .00002061  00000-0  14750-3 0  9997,2 52639  53.2192  12.6417 0002758  27.6217 332.4921 15.08859363 26524,6917.821,95.436,541.594,537.778,0.0
52639.0,STARLINK-3968,PAYLOAD,2022-10-28 23:18:57,15.08851342,0.0002762,53.2196,10.561,28.0372,332.0768,-1.0237e-05,-4.52e-06,0.0,0 STARLINK-3968,1 52639U 22052AT  22301.97149579 -.00000452  00000-0 -10237-4 0  9995,2 52639  53.2196  10.5610 0002762  28.0372 332.0768 15.08851342 26166,6917.846,95.437,541.621,537.8,0.0
52639.0,STARLINK-3968,PAYLOAD,2022-10-29 08:51:16,15.08846381,0.0002851,53.2194,8.7766,24.4357,335.677,-0.00014791,-2.642e-05,0.0,0 STARLINK-3968,1 52639U 22052AT  22302.36893525 -.00002642  00000-0 -14791-3 0  9997,2 52639  53.2194   8.7766 0002851  24.4357 335.6770 15.08846381 26650,6917.861,95.437,541.698,537.754,0.0
52639.0,STARLINK-3968,PAYLOAD,2022-10-29 13:37:25,15.08844299,0.0003078,53.2183,7.8816,20.7841,339.3276,-0.00010357,-1.937e-05,0.0,0 STARLINK-3968,1 52639U 22052AT  22302.56765726 -.00001937  00000-0 -10357-3 0  9990,2 52639  53.2183   7.8816 0003078  20.7841 339.3276 15.08844299 26684,6917.8669999999975,95.437,541.862,537.6030000000002,0.0
52639.0,STARLINK-3968,PAYLOAD,2022-10-30 11:52:48,15.08850992,0.0002836999999999,53.2185,3.7181,25.6121,334.5011,1.4589e-05,-5.6e-07,0.0,0 STARLINK-3968,1 52639U 22052AT  22303.49500878 -.00000056  00000-0  14589-4 0  9990,2 52639  53.2185   3.7181 0002837  25.6121 334.5011 15.08850992 26820,6917.847,95.437,541.674,537.749,0.0
52639.0,STARLINK-3968,PAYLOAD,2022-10-31 10:08:14,15.08828349,0.0003096,53.2192,359.5557,19.9907,340.1206,-4.5679e-05,-1.015e-05,0.0,0 STARLINK-3968,1 52639U 22052AT  22304.42239085 -.00001015  00000-0 -45679-4 0  9994,2 52639  53.2192 359.5557 0003096  19.9907 340.1206 15.08828349 26968,6917.916,95.438,541.923,537.639,0.0
52639.0,STARLINK-3968,PAYLOAD,2022-11-01 03:37:28,15.08837222,0.0003011,53.2192,356.2864,23.7685,336.3446,-1.1526e-05,-4.72e-06,0.0,0 STARLINK-3968,1 52639U 22052AT  22305.15102560 -.00000472  00000-0 -11526-4 0  9992,2 52639  53.2192 356.2864 0003011  23.7685 336.3446 15.08837222 26644,6917.889,95.438,541.837,537.6709999999998,0.0
52639.0,STARLINK-3968,PAYLOAD,2022-11-01 09:59:01,15.08840595,0.0002942,53.2187,355.096,24.6275,335.4858,6.736100000000001e-05,7.84e-06,0.0,0 STARLINK-3968,1 52639U 22052AT  22305.41598474  .00000784  00000-0  67361-4 0  9996,2 52639  53.2187 355.0960 0002942  24.6275 335.4858 15.08840595 27116,6917.879,95.438,541.779,537.7080000000002,0.0
52639.0,STARLINK-3968,PAYLOAD,2022-11-02 09:49:48,15.08835811,0.0003031,53.2188,350.636,24.0083,336.105,0.00026889,3.993e-05,0.0,0 STARLINK-3968,1 52639U 22052AT  22306.40959172  .00003993  00000-0  26889-3 0  9996,2 52639  53.2188 350.6360 0003031  24.0083 336.1050 15.08835811 26838,6917.893,95.438,541.855,537.661,0.0
52639.0,STARLINK-3968,PAYLOAD,2022-11-03 03:19:03,15.08833523,0.0003084,53.2196,347.3654,23.6194,336.494,7.385e-05,8.87e-06,0.0,0 STARLINK-3968,1 52639U 22052AT  22307.13823680  .00000887  00000-0  73850-4 0  9991,2 52639  53.2196 347.3654 0003084  23.6194 336.4940 15.08833523 26943,6917.9,95.438,541.899,537.632,0.0
52639.0,STARLINK-3968,PAYLOAD,2022-11-03 11:15:58,15.08847595,0.0003084,53.219,345.8791,25.7843,334.3303,0.00024727,3.65e-05,0.0,0 STARLINK-3968,1 52639U 22052AT  22307.46942785  .00003650  00000-0  24727-3 0  9994,2 52639  53.2190 345.8791 0003084  25.7843 334.3303 15.08847595 26995,6917.857,95.437,541.856,537.589,0.0
52639.0,STARLINK-3968,PAYLOAD,2022-11-03 12:51:21,15.08848376,0.0003093,53.2189,345.5817,25.8721,334.2426,0.000239,3.518e-05,0.0,0 STARLINK-3968,1 52639U 22052AT  22307.53566721  .00003518  00000-0  23900-3 0  9999,2 52639  53.2189 345.5817 0003093  25.8721 334.2426 15.08848376 27438,6917.855,95.437,541.859,537.58,0.0
